[{"OBJECT_NAME":"STARLINK-30221","OBJECT_ID":"2023-102Q","EPOCH":"2026-03-09T22:00:01.999584","MEAN_MOTION":15.06449131,"ECCENTRICITY":5.601e-5,"INCLINATION":43.0009,"RA_OF_ASC_NODE":247.216,"ARG_OF_PERICENTER":292.626,"MEAN_ANOMALY":132.8508,"EPHEMERIS_TYPE":0,"CLASSIFICATION_TYPE":"U","NORAD_CAT_ID":57418,"ELEMENT_SET_NO":999,"REV_AT_EPOCH":573,"BSTAR":0.0060867967,"MEAN_MOTION_DOT":0.00092303,"MEAN_MOTION_DDOT":0},{"OBJECT_NAME":"IRIDIUM 33 DEB","OBJECT_ID":"1997-051ABJ","EPOCH":"2026-03-07T11:02:11.153184","MEAN_MOTION":15.04355632,"ECCENTRICITY":0.00105712,"INCLINATION":86.348,"RA_OF_ASC_NODE":321.5871,"ARG_OF_PERICENTER":86.7515,"MEAN_ANOMALY":38.318,"EPHEMERIS_TYPE":0,"CLASSIFICATION_TYPE":"U","NORAD_CAT_ID":40996,"ELEMENT_SET_NO":999,"REV_AT_EPOCH":63758,"BSTAR":0.0045408492,"MEAN_MOTION_DOT":0.00063892,"MEAN_MOTION_DDOT":0}]
